[{"OBJECT_NAME":"TK-2","OBJECT_ID":"2022-031A","EPOCH":"2026-03-09T22:51:17.143200","MEAN_MOTION":15.02943491,"ECCENTRICITY":0.00164117,"INCLINATION":97.8366,"RA_OF_ASC_NODE":263.9365,"ARG_OF_PERICENTER":100.3205,"MEAN_ANOMALY":259.9871,"EPHEMERIS_TYPE":0,"CLASSIFICATION_TYPE":"U","NORAD_CAT_ID":52150,"ELEMENT_SET_NO":999,"REV_AT_EPOCH":21555,"BSTAR":0.00040164474,"MEAN_MOTION_DOT":5.349e-5,"MEAN_MOTION_DDOT":0},{"OBJECT_NAME":"STARLINK-34922","OBJECT_ID":"2025-184A","EPOCH":"2026-03-09T16:41:02.223168","MEAN_MOTION":15.0565116,"ECCENTRICITY":9.631e-5,"INCLINATION":97.6036,"RA_OF_ASC_NODE":122.6941,"ARG_OF_PERICENTER":216.5585,"MEAN_ANOMALY":143.5576,"EPHEMERIS_TYPE":0,"CLASSIFICATION_TYPE":"U","NORAD_CAT_ID":65273,"ELEMENT_SET_NO":999,"REV_AT_EPOCH":3130,"BSTAR":0.00042586516,"MEAN_MOTION_DOT":6.089e-5,"MEAN_MOTION_DDOT":0}]
